{"type": "FeatureCollection", "features": [ {"type": "Feature", "properties": {"norad_id": 43622, "name": "BEIDOU-3 M13 (C32)", "group": "beidou", "lat": 9.077456712248587, "lon": -117.14560149163327, "alt_km": 21537.659551887195, "timestamp": "2025-12-09T16:56:36.840023+00:00", "meta": {"OBJECT_NAME": "BEIDOU-3 M13 (C32)", "OBJECT_ID": "2018-072A", "EPOCH": "2025-12-08T09:06:52.153056", "MEAN_MOTION": 1.86230751, "ECCENTRICITY": 0.00059246, "INCLINATION": 56.4552, "RA_OF_ASC_NODE": 68.9648, "ARG_OF_PERICENTER": 298.4192, "MEAN_ANOMALY": 61.5427, "EPHEMERIS_TYPE": 0, "CLASSIFICATION_TYPE": "U", "NORAD_CAT_ID": 43622, "ELEMENT_SET_NO": 999, "REV_AT_EPOCH": 4910, "BSTAR": 0, "MEAN_MOTION_DOT": -4.5e-07, "MEAN_MOTION_DDOT": 0}, "tle": {"line1": "1 43622U 18072A   25342.37977029 -.00000045  00000+0  00000+0 0  9993", "line2": "2 43622  56.4552  68.9648 0005924 298.4192  61.5427  1.86230751 49104"}}, "geometry": {"type": "Point", "coordinates": [-117.14560149163327, 9.077456712248587]}}, {"type": "Feature", "properties": {"norad_id": 43623, "name": "BEIDOU-3 M14 (C33)", "group": "beidou", "lat": -55.00909700762654, "lon": -39.924188608245316, "alt_km": 21531.922086186958, "timestamp": "2025-12-09T16:56:36.840035+00:00", "meta": {"OBJECT_NAME": "BEIDOU-3 M14 (C33)", "OBJECT_ID": "2018-072B", "EPOCH": "2025-12-09T07:39:35.322912", "MEAN_MOTION": 1.86230627, "ECCENTRICITY": 0.0003205, "INCLINATION": 56.458, "RA_OF_ASC_NODE": 68.9278, "ARG_OF_PERICENTER": 335.7988, "MEAN_ANOMALY": 24.209, "EPHEMERIS_TYPE": 0, "CLASSIFICATION_TYPE": "U", "NORAD_CAT_ID": 43623, "ELEMENT_SET_NO": 999, "REV_AT_EPOCH": 4911, "BSTAR": 0, "MEAN_MOTION_DOT": -4.8e-07, "MEAN_MOTION_DDOT": 0}, "tle": {"line1": "1 43623U 18072B   25343.31915883 -.00000048  00000+0  00000+0 0  9992", "line2": "2 43623  56.4580  68.9278 0003205 335.7988  24.2090  1.86230627 49118"}}, "geometry": {"type": "Point", "coordinates": [-39.924188608245316, -55.00909700762654]}}, {"type": "Feature", "properties": {"norad_id": 43647, "name": "BEIDOU-3 M16 (C35)", "group": "beidou", "lat": 21.125686272963524, "lon": 110.46875974498656, "alt_km": 21539.31283857646, "timestamp": "2025-12-09T16:56:36.840046+00:00", "meta": {"OBJECT_NAME": "BEIDOU-3 M16 (C35)", "OBJECT_ID": "2018-078A", "EPOCH": "2025-12-08T22:33:41.935680", "MEAN_MOTION": 1.86232209, "ECCENTRICITY": 0.0007116, "INCLINATION": 54.2656, "RA_OF_ASC_NODE": 306.6541, "ARG_OF_PERICENTER": 19.0293, "MEAN_ANOMALY": 340.9862, "EPHEMERIS_TYPE": 0, "CLASSIFICATION_TYPE": "U", "NORAD_CAT_ID": 43647, "ELEMENT_SET_NO": 999, "REV_AT_EPOCH": 4861, "BSTAR": 0, "MEAN_MOTION_DOT": -7.5e-07, "MEAN_MOTION_DDOT": 0}, "tle": {"line1": "1 43647U 18078A   25342.94006870 -.00000075  00000+0  00000+0 0  9999", "line2": "2 43647  54.2656 306.6541 0007116  19.0293 340.9862  1.86232209 48612"}}, "geometry": {"type": "Point", "coordinates": [110.46875974498656, 21.125686272963524]}}, {"type": "Feature", "properties": {"norad_id": 43648, "name": "BEIDOU-3 M15 (C34)", "group": "beidou", "lat": 48.314234209852444, "lon": 0.510337247697562, "alt_km": 21515.6551436757, "timestamp": "2025-12-09T16:56:36.840057+00:00", "meta": {"OBJECT_NAME": "BEIDOU-3 M15 (C34)", "OBJECT_ID": "2018-078B", "EPOCH": "2025-12-09T01:39:46.541952", "MEAN_MOTION": 1.8623188, "ECCENTRICITY": 0.0003597, "INCLINATION": 54.2613, "RA_OF_ASC_NODE": 306.6502, "ARG_OF_PERICENTER": 17.7285, "MEAN_ANOMALY": 342.2733, "EPHEMERIS_TYPE": 0, "CLASSIFICATION_TYPE": "U", "NORAD_CAT_ID": 43648, "ELEMENT_SET_NO": 999, "REV_AT_EPOCH": 4863, "BSTAR": 0, "MEAN_MOTION_DOT": -7.5e-07, "MEAN_MOTION_DDOT": 0}, "tle": {"line1": "1 43648U 18078B   25343.06928868 -.00000075  00000+0  00000+0 0  9994", "line2": "2 43648  54.2613 306.6502 0003597  17.7285 342.2733  1.86231880 48636"}}, "geometry": {"type": "Point", "coordinates": [0.510337247697562, 48.314234209852444]}}, {"type": "Feature", "properties": {"norad_id": 43683, "name": "BEIDOU-3 G1 (C59)", "group": "beidou", "lat": 0.4623940385298739, "lon": 112.89231937737826, "alt_km": 35781.559950153875, "timestamp": "2025-12-09T16:56:36.840069+00:00", "meta": {"OBJECT_NAME": "BEIDOU-3 G1 (C59)", "OBJECT_ID": "2018-085A", "EPOCH": "2025-12-08T17:41:39.231168", "MEAN_MOTION": 1.00272068, "ECCENTRICITY": 0.0001779, "INCLINATION": 2.5974, "RA_OF_ASC_NODE": 103.0581, "ARG_OF_PERICENTER": 62.9114, "MEAN_ANOMALY": 317.2543, "EPHEMERIS_TYPE": 0, "CLASSIFICATION_TYPE": "U", "NORAD_CAT_ID": 43683, "ELEMENT_SET_NO": 999, "REV_AT_EPOCH": 2615, "BSTAR": 0, "MEAN_MOTION_DOT": -2.75e-06, "MEAN_MOTION_DDOT": 0}, "tle": {"line1": "1 43683U 18085A   25342.73725962 -.00000275  00000+0  00000+0 0  9996", "line2": "2 43683   2.5974 103.0581 0001779  62.9114 317.2543  1.00272068 26153"}}, "geometry": {"type": "Point", "coordinates": [112.89231937737826, 0.4623940385298739]}}, {"type": "Feature", "properties": {"norad_id": 43706, "name": "BEIDOU-3 M17 (C36)", "group": "beidou", "lat": -30.98027307860162, "lon": 163.0202927017269, "alt_km": 21515.203244513817, "timestamp": "2025-12-09T16:56:36.840080+00:00", "meta": {"OBJECT_NAME": "BEIDOU-3 M17 (C36)", "OBJECT_ID": "2018-093A", "EPOCH": "2025-12-07T14:48:21.849120", "MEAN_MOTION": 1.86228285, "ECCENTRICITY": 0.0006281, "INCLINATION": 54.1726, "RA_OF_ASC_NODE": 188.7957, "ARG_OF_PERICENTER": 306.8876, "MEAN_ANOMALY": 53.1241, "EPHEMERIS_TYPE": 0, "CLASSIFICATION_TYPE": "U", "NORAD_CAT_ID": 43706, "ELEMENT_SET_NO": 999, "REV_AT_EPOCH": 4797, "BSTAR": 0, "MEAN_MOTION_DOT": 5.7e-07, "MEAN_MOTION_DDOT": 0}, "tle": {"line1": "1 43706U 18093A   25341.61691955  .00000057  00000+0  00000+0 0  9998", "line2": "2 43706  54.1726 188.7957 0006281 306.8876  53.1241  1.86228285 47972"}}, "geometry": {"type": "Point", "coordinates": [163.0202927017269, -30.98027307860162]}}, {"type": "Feature", "properties": {"norad_id": 43707, "name": "BEIDOU-3 M18 (C37)", "group": "beidou", "lat": 40.68343243676461, "lon": -132.8767236126231, "alt_km": 21515.223494693848, "timestamp": "2025-12-09T16:56:36.840092+00:00", "meta": {"OBJECT_NAME": "BEIDOU-3 M18 (C37)", "OBJECT_ID": "2018-093B", "EPOCH": "2025-12-09T02:08:32.306784", "MEAN_MOTION": 1.86226655, "ECCENTRICITY": 0.0006293, "INCLINATION": 54.1729, "RA_OF_ASC_NODE": 188.7377, "ARG_OF_PERICENTER": 351.6926, "MEAN_ANOMALY": 8.358, "EPHEMERIS_TYPE": 0, "CLASSIFICATION_TYPE": "U", "NORAD_CAT_ID": 43707, "ELEMENT_SET_NO": 999, "REV_AT_EPOCH": 4799, "BSTAR": 0, "MEAN_MOTION_DOT": 4.9e-07, "MEAN_MOTION_DDOT": 0}, "tle": {"line1": "1 43707U 18093B   25343.08926281  .00000049  00000+0  00000+0 0  9996", "line2": "2 43707  54.1729 188.7377 0006293 351.6926   8.3580  1.86226655 47998"}}, "geometry": {"type": "Point", "coordinates": [-132.8767236126231, 40.68343243676461]}}, {"type": "Feature", "properties": {"norad_id": 44204, "name": "BEIDOU-3 IGSO-1 (C38)", "group": "beidou", "lat": 38.22706047514969, "lon": 68.57642147474236, "alt_km": 35902.913237278204, "timestamp": "2025-12-09T16:56:36.840104+00:00", "meta": {"OBJECT_NAME": "BEIDOU-3 IGSO-1 (C38)", "OBJECT_ID": "2019-023A", "EPOCH": "2025-11-19T14:15:02.708640", "MEAN_MOTION": 1.00252177, "ECCENTRICITY": 0.0026966, "INCLINATION": 58.4003, "RA_OF_ASC_NODE": 39.8168, "ARG_OF_PERICENTER": 221.2202, "MEAN_ANOMALY": 126.9723, "EPHEMERIS_TYPE": 0, "CLASSIFICATION_TYPE": "U", "NORAD_CAT_ID": 44204, "ELEMENT_SET_NO": 999, "REV_AT_EPOCH": 510, "BSTAR": 0, "MEAN_MOTION_DOT": -2.26e-06, "MEAN_MOTION_DDOT": 0}, "tle": {"line1": "1 44204U 19023A   25323.59378135 -.00000226  00000+0  00000+0 0  9994", "line2": "2 44204  58.4003  39.8168 0026966 221.2202 126.9723  1.00252177  5102"}}, "geometry": {"type": "Point", "coordinates": [68.57642147474236, 38.22706047514969]}}, {"type": "Feature", "properties": {"norad_id": 44231, "name": "BEIDOU-2 G8 (C01)", "group": "beidou", "lat": 1.1377995283481401, "lon": 117.41375013565205, "alt_km": 35817.4117120222, "timestamp": "2025-12-09T16:56:36.840119+00:00", "meta": {"OBJECT_NAME": "BEIDOU-2 G8 (C01)", "OBJECT_ID": "2019-027A", "EPOCH": "2025-12-09T13:48:15.723072", "MEAN_MOTION": 1.00268427, "ECCENTRICITY": 0.000856, "INCLINATION": 1.6538, "RA_OF_ASC_NODE": 74.6775, "ARG_OF_PERICENTER": 254.8433, "MEAN_ANOMALY": 100.6395, "EPHEMERIS_TYPE": 0, "CLASSIFICATION_TYPE": "U", "NORAD_CAT_ID": 44231, "ELEMENT_SET_NO": 999, "REV_AT_EPOCH": 2417, "BSTAR": 0, "MEAN_MOTION_DOT": -2.45e-06, "MEAN_MOTION_DDOT": 0}, "tle": {"line1": "1 44231U 19027A   25343.57518198 -.00000245  00000+0  00000+0 0  9994", "line2": "2 44231   1.6538  74.6775 0008560 254.8433 100.6395  1.00268427 24171"}}, "geometry": {"type": "Point", "coordinates": [117.41375013565205, 1.1377995283481401]}}, {"type": "Feature", "properties": {"norad_id": 44337, "name": "BEIDOU-3 IGSO-2 (C39)", "group": "beidou", "lat": -49.420472451074545, "lon": 106.19756132149189, "alt_km": 35791.44668456415, "timestamp": "2025-12-09T16:56:36.840130+00:00", "meta": {"OBJECT_NAME": "BEIDOU-3 IGSO-2 (C39)", "OBJECT_ID": "2019-035A", "EPOCH": "2025-12-08T21:18:38.600064", "MEAN_MOTION": 1.00272014, "ECCENTRICITY": 0.0037301, "INCLINATION": 55.2241, "RA_OF_ASC_NODE": 160.5341, "ARG_OF_PERICENTER": 202.3504, "MEAN_ANOMALY": 154.1975, "EPHEMERIS_TYPE": 0, "CLASSIFICATION_TYPE": "U", "NORAD_CAT_ID": 44337, "ELEMENT_SET_NO": 999, "REV_AT_EPOCH": 2375, "BSTAR": 0, "MEAN_MOTION_DOT": -7.9e-07, "MEAN_MOTION_DDOT": 0}, "tle": {"line1": "1 44337U 19035A   25342.88794676 -.00000079  00000+0  00000+0 0  9995", "line2": "2 44337  55.2241 160.5341 0037301 202.3504 154.1975  1.00272014 23758"}}, "geometry": {"type": "Point", "coordinates": [106.19756132149189, -49.420472451074545]}}]}